start=new Date('2022-01-14T00:00:00.000Z').valueOf();
sats=[{"FILE":"3272312","ECCENTRICITY":"0.00014500","GP_ID":"193808782","APOAPSIS":"548.258","REF_FRAME":"TEME","BSTAR":"0.00005908000000","INCLINATION":"53.0564","EPHEMERIS_TYPE":"0","MEAN_MOTION_DDOT":"0.0000000000000","PERIOD":"95.593","OBJECT_NAME":"STARLINK-1267","TLE_LINE2":"2 45384  53.0564 111.8087 0001450  83.9478 276.1677 15.06386800101526","PERIAPSIS":"546.250","ELEMENT_SET_NO":"999","MEAN_MOTION_DOT":"0.00000598","SITE":"AFETR","CLASSIFICATION_TYPE":"U","DECAY_DATE":null,"MEAN_ANOMALY":"276.1677","OBJECT_ID":"2020-019AA","RA_OF_ASC_NODE":"111.8087","EPOCH":"2022-01-13T18:39:48.120192","MEAN_ELEMENT_THEORY":"SGP4","CENTER_NAME":"EARTH","TLE_LINE1":"1 45384U 20019AA  22013.77764028  .00000598  00000-0  59080-4 0  9993","NORAD_CAT_ID":"45384","RCS_SIZE":"LARGE","TIME_SYSTEM":"UTC","OBJECT_TYPE":"PAYLOAD","REV_AT_EPOCH":"10152","SEMIMAJOR_AXIS":"6925.389","ARG_OF_PERICENTER":"83.9478","COUNTRY_CODE":"US","MEAN_MOTION":"15.06386800","LAUNCH_DATE":"2020-03-18"},{"PERIOD":"95.593","MEAN_MOTION_DDOT":"0.0000000000000","EPHEMERIS_TYPE":"0","ELEMENT_SET_NO":"999","MEAN_MOTION_DOT":"0.00000485","CLASSIFICATION_TYPE":"U","SITE":"AFETR","DECAY_DATE":null,"OBJECT_NAME":"STARLINK-1272","PERIAPSIS":"546.443","TLE_LINE2":"2 45386  53.0548 111.8044 0001152  97.6394 262.4726 15.06391120101525","APOAPSIS":"548.039","GP_ID":"193810034","ECCENTRICITY":"0.00011520","FILE":"3272312","BSTAR":"0.00005143900000","INCLINATION":"53.0548","REF_FRAME":"TEME","REV_AT_EPOCH":"10152","LAUNCH_DATE":"2020-03-18","SEMIMAJOR_AXIS":"6925.376","ARG_OF_PERICENTER":"97.6394","MEAN_MOTION":"15.06391120","COUNTRY_CODE":"US","OBJECT_ID":"2020-019AC","MEAN_ANOMALY":"262.4726","RCS_SIZE":"LARGE","TIME_SYSTEM":"UTC","OBJECT_TYPE":"PAYLOAD","RA_OF_ASC_NODE":"111.8044","MEAN_ELEMENT_THEORY":"SGP4","EPOCH":"2022-01-13T18:45:06.219936","TLE_LINE1":"1 45386U 20019AC  22013.78132199  .00000485  00000-0  51439-4 0  9999","NORAD_CAT_ID":"45386","CENTER_NAME":"EARTH"},{"ARG_OF_PERICENTER":"99.4310","SEMIMAJOR_AXIS":"6925.364","COUNTRY_CODE":"US","MEAN_MOTION":"15.06395061","LAUNCH_DATE":"2020-03-18","REV_AT_EPOCH":"10149","RA_OF_ASC_NODE":"112.5927","EPOCH":"2022-01-13T14:30:19.593216","MEAN_ELEMENT_THEORY":"SGP4","TLE_LINE1":"1 45387U 20019AD  22013.60439344  .00000037  00000-0  21409-4 0  9990","NORAD_CAT_ID":"45387","CENTER_NAME":"EARTH","RCS_SIZE":"LARGE","OBJECT_TYPE":"PAYLOAD","TIME_SYSTEM":"UTC","MEAN_ANOMALY":"260.6847","OBJECT_ID":"2020-019AD","OBJECT_NAME":"STARLINK-1274","PERIAPSIS":"546.203","TLE_LINE2":"2 45387  53.0544 112.5927 0001481  99.4310 260.6847 15.06395061101491","ELEMENT_SET_NO":"999","MEAN_MOTION_DOT":"0.00000037","CLASSIFICATION_TYPE":"U","SITE":"AFETR","DECAY_DATE":null,"EPHEMERIS_TYPE":"0","MEAN_MOTION_DDOT":"0.0000000000000","PERIOD":"95.592","REF_FRAME":"TEME","BSTAR":"0.00002140900000","INCLINATION":"53.0544","ECCENTRICITY":"0.00014810","FILE":"3272312","APOAPSIS":"548.254","GP_ID":"193810285"},{"MEAN_MOTION_DDOT":"0.0000000000000","PERIOD":"95.592","EPHEMERIS_TYPE":"0","ELEMENT_SET_NO":"999","MEAN_MOTION_DOT":"0.00000741","CLASSIFICATION_TYPE":"U","SITE":"AFETR","DECAY_DATE":null,"OBJECT_NAME":"STARLINK-1280","PERIAPSIS":"546.103","TLE_LINE2":"2 45388  53.0542 131.5356 0001624  87.4764 272.6411 15.06395247101245","APOAPSIS":"548.353","GP_ID":"193809033","ECCENTRICITY":"0.00016240","FILE":"3272312","BSTAR":"0.00006868100000","INCLINATION":"53.0542","REF_FRAME":"TEME","REV_AT_EPOCH":"10124","LAUNCH_DATE":"2020-03-18","SEMIMAJOR_AXIS":"6925.363","ARG_OF_PERICENTER":"87.4764","MEAN_MOTION":"15.06395247","COUNTRY_CODE":"US","OBJECT_ID":"2020-019AE","MEAN_ANOMALY":"272.6411","RCS_SIZE":"LARGE","TIME_SYSTEM":"UTC","OBJECT_TYPE":"PAYLOAD","RA_OF_ASC_NODE":"131.5356","EPOCH":"2022-01-13T20:07:22.384992","MEAN_ELEMENT_THEORY":"SGP4","TLE_LINE1":"1 45388U 20019AE  22013.83845353  .00000741  00000-0  68681-4 0  9992","NORAD_CAT_ID":"45388","CENTER_NAME":"EARTH"},{"REV_AT_EPOCH":"10150","SEMIMAJOR_AXIS":"6925.378","ARG_OF_PERICENTER":"82.3221","COUNTRY_CODE":"US","MEAN_MOTION":"15.06390470","LAUNCH_DATE":"2020-03-18","MEAN_ANOMALY":"277.7934","OBJECT_ID":"2020-019AF","RA_OF_ASC_NODE":"112.5114","MEAN_ELEMENT_THEORY":"SGP4","EPOCH":"2022-01-13T14:51:33.796224","CENTER_NAME":"EARTH","TLE_LINE1":"1 45389U 20019AF  22013.61914116  .00000049  00000-0  22183-4 0  9991","NORAD_CAT_ID":"45389","RCS_SIZE":"LARGE","OBJECT_TYPE":"PAYLOAD","TIME_SYSTEM":"UTC","EPHEMERIS_TYPE":"0","MEAN_MOTION_DDOT":"0.0000000000000","PERIOD":"95.593","OBJECT_NAME":"STARLINK-1283","PERIAPSIS":"546.229","TLE_LINE2":"2 45389  53.0561 112.5114 0001464  82.3221 277.7934 15.06390470101500","ELEMENT_SET_NO":"999","MEAN_MOTION_DOT":"0.00000049","SITE":"AFETR","CLASSIFICATION_TYPE":"U","DECAY_DATE":null,"FILE":"3272312","ECCENTRICITY":"0.00014640","GP_ID":"193809283","APOAPSIS":"548.257","REF_FRAME":"TEME","BSTAR":"0.00002218300000","INCLINATION":"53.0561"},{"INCLINATION":"53.0556","BSTAR":"0.00004963200000","REF_FRAME":"TEME","GP_ID":"193809534","APOAPSIS":"548.209","ECCENTRICITY":"0.00014070","FILE":"3272312","DECAY_DATE":null,"CLASSIFICATION_TYPE":"U","SITE":"AFETR","MEAN_MOTION_DOT":"0.00000458","ELEMENT_SET_NO":"999","TLE_LINE2":"2 45390  53.0556 112.6526 0001407  74.6244 285.4900 15.06393180101498","PERIAPSIS":"546.260","OBJECT_NAME":"STARLINK-1284","MEAN_MOTION_DDOT":"0.0000000000000","PERIOD":"95.593","EPHEMERIS_TYPE":"0","OBJECT_TYPE":"PAYLOAD","TIME_SYSTEM":"UTC","RCS_SIZE":"LARGE","NORAD_CAT_ID":"45390","TLE_LINE1":"1 45390U 20019AG  22013.59333720  .00000458  00000-0  49632-4 0  9998","CENTER_NAME":"EARTH","MEAN_ELEMENT_THEORY":"SGP4","EPOCH":"2022-01-13T14:14:24.334080","RA_OF_ASC_NODE":"112.6526","OBJECT_ID":"2020-019AG","MEAN_ANOMALY":"285.4900","LAUNCH_DATE":"2020-03-18","COUNTRY_CODE":"US","MEAN_MOTION":"15.06393180","ARG_OF_PERICENTER":"74.6244","SEMIMAJOR_AXIS":"6925.369","REV_AT_EPOCH":"10149"},{"MEAN_ANOMALY":"258.8328","OBJECT_ID":"2020-019AH","MEAN_ELEMENT_THEORY":"SGP4","EPOCH":"2022-01-13T17:46:42.945312","TLE_LINE1":"1 45391U 20019AH  22013.74077483 -.00000726  00000-0 -29843-4 0  9999","NORAD_CAT_ID":"45391","CENTER_NAME":"EARTH","RA_OF_ASC_NODE":"111.9809","OBJECT_TYPE":"PAYLOAD","TIME_SYSTEM":"UTC","RCS_SIZE":"LARGE","REV_AT_EPOCH":"10124","ARG_OF_PERICENTER":"101.2811","SEMIMAJOR_AXIS":"6925.374","MEAN_MOTION":"15.06391652","COUNTRY_CODE":"US","LAUNCH_DATE":"2020-03-18","ECCENTRICITY":"0.00013270","FILE":"3272312","GP_ID":"193809785","APOAPSIS":"548.158","REF_FRAME":"TEME","INCLINATION":"53.0550","BSTAR":"-0.00002984300000","EPHEMERIS_TYPE":"0","MEAN_MOTION_DDOT":"0.0000000000000","PERIOD":"95.593","TLE_LINE2":"2 45391  53.0550 111.9809 0001327 101.2811 258.8328 15.06391652101240","PERIAPSIS":"546.320","OBJECT_NAME":"STARLINK-1289","SITE":"AFETR","CLASSIFICATION_TYPE":"U","DECAY_DATE":null,"ELEMENT_SET_NO":"999","MEAN_MOTION_DOT":"-0.00000726"},{"ELEMENT_SET_NO":"999","MEAN_MOTION_DOT":"0.00008189","CLASSIFICATION_TYPE":"U","SITE":"AFETR","DECAY_DATE":null,"OBJECT_NAME":"STARLINK-1290","PERIAPSIS":"538.945","TLE_LINE2":"2 45392  52.9940 107.1498 0001197 137.1110 222.9972 15.08830889101270","MEAN_MOTION_DDOT":"0.0000000000000","PERIOD":"95.438","EPHEMERIS_TYPE":"0","BSTAR":"0.00053206000000","INCLINATION":"52.9940","REF_FRAME":"TEME","GP_ID":"193808533","APOAPSIS":"540.601","ECCENTRICITY":"0.00011970","FILE":"3272312","LAUNCH_DATE":"2020-03-18","ARG_OF_PERICENTER":"137.1110","SEMIMAJOR_AXIS":"6917.908","COUNTRY_CODE":"US","MEAN_MOTION":"15.08830889","REV_AT_EPOCH":"10127","RCS_SIZE":"LARGE","OBJECT_TYPE":"PAYLOAD","TIME_SYSTEM":"UTC","RA_OF_ASC_NODE":"107.1498","MEAN_ELEMENT_THEORY":"SGP4","EPOCH":"2022-01-13T17:35:14.357184","CENTER_NAME":"EARTH","TLE_LINE1":"1 45392U 20019AJ  22013.73280506  .00008189  00000-0  53206-3 0  9999","NORAD_CAT_ID":"45392","OBJECT_ID":"2020-019AJ","MEAN_ANOMALY":"222.9972"},{"REV_AT_EPOCH":"10125","SEMIMAJOR_AXIS":"6925.381","ARG_OF_PERICENTER":"80.7841","COUNTRY_CODE":"US","MEAN_MOTION":"15.06389460","LAUNCH_DATE":"2020-03-18","MEAN_ANOMALY":"279.3279","OBJECT_ID":"2020-019AK","RA_OF_ASC_NODE":"112.7413","MEAN_ELEMENT_THEORY":"SGP4","EPOCH":"2022-01-13T13:42:33.770880","CENTER_NAME":"EARTH","TLE_LINE1":"1 45393U 20019AK  22013.57122420  .00000120  00000-0  26949-4 0  9994","NORAD_CAT_ID":"45393","RCS_SIZE":"LARGE","OBJECT_TYPE":"PAYLOAD","TIME_SYSTEM":"UTC","EPHEMERIS_TYPE":"0","MEAN_MOTION_DDOT":"0.0000000000000","PERIOD":"95.593","OBJECT_NAME":"STARLINK-1291","PERIAPSIS":"546.445","TLE_LINE2":"2 45393  53.0546 112.7413 0001157  80.7841 279.3279 15.06389460101250","ELEMENT_SET_NO":"999","MEAN_MOTION_DOT":"0.00000120","SITE":"AFETR","CLASSIFICATION_TYPE":"U","DECAY_DATE":null,"FILE":"3271980","ECCENTRICITY":"0.00011570","APOAPSIS":"548.047","GP_ID":"193777982","REF_FRAME":"TEME","BSTAR":"0.00002694900000","INCLINATION":"53.0546"},{"SEMIMAJOR_AXIS":"6925.363","ARG_OF_PERICENTER":"105.8948","COUNTRY_CODE":"US","MEAN_MOTION":"15.06395383","LAUNCH_DATE":"2020-03-18","REV_AT_EPOCH":"10125","RA_OF_ASC_NODE":"112.0157","EPOCH":"2022-01-13T17:36:05.873184","MEAN_ELEMENT_THEORY":"SGP4","TLE_LINE1":"1 45394U 20019AL  22013.73340131  .00000439  00000-0  48366-4 0  9994","CENTER_NAME":"EARTH","NORAD_CAT_ID":"45394","RCS_SIZE":"LARGE","OBJECT_TYPE":"PAYLOAD","TIME_SYSTEM":"UTC","MEAN_ANOMALY":"254.2205","OBJECT_ID":"2020-019AL","OBJECT_NAME":"STARLINK-1292","PERIAPSIS":"546.197","TLE_LINE2":"2 45394  53.0549 112.0157 0001488 105.8948 254.2205 15.06395383101258","ELEMENT_SET_NO":"999","MEAN_MOTION_DOT":"0.00000439","SITE":"AFETR","CLASSIFICATION_TYPE":"U","DECAY_DATE":null,"EPHEMERIS_TYPE":"0","PERIOD":"95.592","MEAN_MOTION_DDOT":"0.0000000000000","REF_FRAME":"TEME","BSTAR":"0.00004836600000","INCLINATION":"53.0549","FILE":"3272312","ECCENTRICITY":"0.00014880","APOAPSIS":"548.258","GP_ID":"193810035"}];
